[{"OBJECT_NAME":"STARLINK-31412","OBJECT_ID":"2024-064N","EPOCH":"2026-03-09T22:25:53.365152","MEAN_MOTION":15.27575254,"ECCENTRICITY":9.531e-5,"INCLINATION":43.0041,"RA_OF_ASC_NODE":54.7488,"ARG_OF_PERICENTER":254.2755,"MEAN_ANOMALY":105.7991,"EPHEMERIS_TYPE":0,"CLASSIFICATION_TYPE":"U","NORAD_CAT_ID":59410,"ELEMENT_SET_NO":999,"REV_AT_EPOCH":10926,"BSTAR":8.75813e-7,"MEAN_MOTION_DOT":-2.38e-6,"MEAN_MOTION_DDOT":0},{"OBJECT_NAME":"OBJECT B","OBJECT_ID":"2024-153B","EPOCH":"2026-03-09T23:15:18.632160","MEAN_MOTION":15.30512917,"ECCENTRICITY":0.00113423,"INCLINATION":97.6622,"RA_OF_ASC_NODE":204.9195,"ARG_OF_PERICENTER":149.8438,"MEAN_ANOMALY":210.3457,"EPHEMERIS_TYPE":0,"CLASSIFICATION_TYPE":"U","NORAD_CAT_ID":60746,"ELEMENT_SET_NO":999,"REV_AT_EPOCH":8476,"BSTAR":0.00066193599,"MEAN_MOTION_DOT":0.00019515,"MEAN_MOTION_DDOT":0}]
